{
    "links": {
        "self": "http://www.neowsapp.com/rest/v1/neo/3532368?api_key=iIulBulltgU6a56xZRHN4H3l9WmuAYTsLGpBGhQ2"
    },
    "id": "3532368",
    "neo_reference_id": "3532368",
    "name": "(2010 LV108)",
    "designation": "2010 LV108",
    "nasa_jpl_url": "http://ssd.jpl.nasa.gov/sbdb.cgi?sstr=3532368",
    "absolute_magnitude_h": 22.6,
    "estimated_diameter": {
        "kilometers": {
            "estimated_diameter_min": 0.0802703167,
            "estimated_diameter_max": 0.1794898848
        },
        "meters": {
            "estimated_diameter_min": 80.2703167283,
            "estimated_diameter_max": 179.4898847799
        },
        "miles": {
            "estimated_diameter_min": 0.049877647,
            "estimated_diameter_max": 0.1115298092
        },
        "feet": {
            "estimated_diameter_min": 263.3540659348,
            "estimated_diameter_max": 588.8775935812
        }
    },
    "is_potentially_hazardous_asteroid": false,
    "close_approach_data": [
        {
            "close_approach_date": "2010-04-16",
            "close_approach_date_full": "2010-Apr-16 17:55",
            "epoch_date_close_approach": 1271440500000,
            "relative_velocity": {
                "kilometers_per_second": "11.7513369245",
                "kilometers_per_hour": "42304.8129280625",
                "miles_per_hour": "26286.5655663286"
            },
            "miss_distance": {
                "astronomical": "0.0611769873",
                "lunar": "23.7978480597",
                "kilometers": "9151946.993097051",
                "miles": "5686756.1631232638"
            },
            "orbiting_body": "Earth"
        }
    ],
    "orbital_data": {
        "orbit_id": "8",
        "orbit_determination_date": "2018-10-03 14:49:44",
        "first_observation_date": "2010-06-14",
        "last_observation_date": "2010-07-14",
        "data_arc_in_days": 30,
        "observations_used": 18,
        "orbit_uncertainty": "8",
        "minimum_orbit_intersection": ".0202553",
        "jupiter_tisserand_invariant": "2.997",
        "epoch_osculation": "2455375.5",
        "eccentricity": ".6513047777971247",
        "semi_major_axis": "2.741005863114359",
        "inclination": "4.402874818651165",
        "ascending_node_longitude": "253.8665180132956",
        "orbital_period": "1657.537542006674",
        "perihelion_distance": ".9557756484980452",
        "perihelion_argument": "344.1875981502061",
        "aphelion_distance": "4.526236077730672",
        "perihelion_time": "2455326.409370835197",
        "mean_anomaly": "10.66197660774185",
        "mean_motion": ".2171896508384185",
        "equinox": "J2000",
        "orbit_class": {
            "orbit_class_type": "APO",
            "orbit_class_description": "Near-Earth asteroid orbits which cross the Earth’s orbit similar to that of 1862 Apollo",
            "orbit_class_range": "a (semi-major axis) > 1.0 AU; q (perihelion) < 1.017 AU"
        }
    },
    "is_sentry_object": false
}